[{"OBJECT_NAME":"RADFXSAT (FOX-1B)","OBJECT_ID":"2017-073E","EPOCH":"2026-03-09T14:17:03.914016","MEAN_MOTION":15.10873817,"ECCENTRICITY":0.0154575,"INCLINATION":97.4852,"RA_OF_ASC_NODE":297.8938,"ARG_OF_PERICENTER":312.4525,"MEAN_ANOMALY":46.3719,"EPHEMERIS_TYPE":0,"CLASSIFICATION_TYPE":"U","NORAD_CAT_ID":43017,"ELEMENT_SET_NO":999,"REV_AT_EPOCH":45034,"BSTAR":0.00051457,"MEAN_MOTION_DOT":0.00011352,"MEAN_MOTION_DDOT":0},{"OBJECT_NAME":"CZ-4C DEB","OBJECT_ID":"2013-037E","EPOCH":"2026-03-09T22:20:01.407840","MEAN_MOTION":14.90003694,"ECCENTRICITY":0.0002744,"INCLINATION":97.9498,"RA_OF_ASC_NODE":84.484,"ARG_OF_PERICENTER":336.6157,"MEAN_ANOMALY":23.4936,"EPHEMERIS_TYPE":0,"CLASSIFICATION_TYPE":"U","NORAD_CAT_ID":39212,"ELEMENT_SET_NO":999,"REV_AT_EPOCH":68005,"BSTAR":0.00061420744,"MEAN_MOTION_DOT":5.869e-5,"MEAN_MOTION_DDOT":0}]
